GLOBALSTAR M001         
1 25162U 98008A   25139.48198799 -.00000074  00000+0  17449-3 0  9995
2 25162  52.0047  56.7708 0001109 168.2240   3.7966 12.38213309240158
GLOBALSTAR M004         
1 25163U 98008B   25139.37322394 -.00000062  00000+0  22983-3 0  9990
2 25163  51.9974 142.0553 0003002 227.6548 271.4810 12.63396115258042
GLOBALSTAR M002         
1 25164U 98008C   25139.42213964 -.00000075  00000+0  30159-4 0  9998
2 25164  52.0027 312.3279 0002210  99.8604 260.2466 11.61509951180726
GLOBALSTAR M003         
1 25165U 98008D   25139.57566698 -.00000085  00000+0  47093-4 0  9996
2 25165  51.9994 247.7652 0007854 232.2853 141.1284 12.12076532229755
GLOBALSTAR M014         
1 25306U 98023A   25139.55311010 -.00000050  00000+0  50646-3 0  9993
2 25306  51.9833 235.8264 0000583 280.7131  93.5192 11.65480707187830
GLOBALSTAR M006         
1 25307U 98023B   25139.56619991 -.00000017  00000+0  12069-2 0  9993
2 25307  51.9945 287.1960 0003611  64.4396  14.1867 11.58175676213514
GLOBALSTAR M015         
1 25308U 98023C   25139.45139602 -.00000086  00000+0 -29482-3 0  9993
2 25308  51.9852  24.6342 0013031  26.5258 144.3816 11.48859097190770
GLOBALSTAR M008         
1 25309U 98023D   25139.61257993 -.00000033  00000+0  49557-3 0  9992
2 25309  51.9973 280.8996 0003364 116.8759 323.4250 12.36069423234318
